[Satellite]
VERSION=1.1
NAME=ERS-2
NICKNAME=ERS-2
TLE1=1 23560U 95021A   19317.81651732  .00001151  00000-0  52982-4 0  9995
TLE2=2 23560  98.5160  77.1637 0003504 171.3413 188.7881 15.22849019309172
STATUS=0
